name;addresses_road_name;addresses_neighborhood_name;addresses_district_name;addresses_zip_code;url;imatge;geometry/type;geometry/coordinates_0;geometry/coordinates_1;coord0;coord01
Margalló de la pl. del Dr. Letamendi;" Plaça del Doctor Letamendi, 7";l'Antiga Esquerra de l'Eixample;Eixample;08007;https://www.barcelona.cat/ca/que-pots-fer-a-bcn/parcs-i-jardins/arbres-interes-local/margallo-de-la-pl-del-dr-letamendi_99400455057.html;https://estatics-nasia.dtibcn.cat/nasia-pro/media/99400455057-arbrespalmereschamaeropshumiliseixampleg4%5B1%5D.jpg;Point;429833.179;4582257.184;42.9833179;45.82257184
Lledoner de la  Plaça Sagrada Família;" Plaça de la Sagrada Família,9999";la Sagrada Família;Eixample;08013;https://www.barcelona.cat/ca/que-pots-fer-a-bcn/parcs-i-jardins/arbres-interes-local/arbre-d-interes-local-lledoner-pl-sagrada-familia_99400455067.html;https://estatics-nasia.dtibcn.cat/nasia-pro/media/201610141114240057-02-94_1.optimized.72d04a90.jpg;Point;430856.7427;4583829.391;43.08567427;45.83829391
Livistona de la  Plaça Major de Nou Barris;Carrer del Doctor Pi i Molist,131;la Guineueta;Nou Barris;08042;https://www.barcelona.cat/ca/que-pots-fer-a-bcn/parcs-i-jardins/arbres-interes-local/arbre-d-interes-local-livistona-d-australia-consell-municipal-del-districte-de-nou-barris_99400455069.html;https://estatics-nasia.dtibcn.cat/nasia-pro/media/201610121312070088-08-94_1.optimized.d2db2627.jpg;Point;430710.4923;4587548.74;43.07104923;45.875487400000004
Livistones xineses de l'Ateneu Barcelonès;Pl Vila de Madrid,11;el Barri Gòtic;Ciutat Vella;08002;https://www.barcelona.cat/ca/que-pots-fer-a-bcn/parcs-i-jardins/arbres-interes-local/arbre-d-interes-local-livistona-de-la-xina-c-canuda-6-pati-de-l-ateneu-barcelones_99400455070.html;https://estatics-nasia.dtibcn.cat/nasia-pro/media/201610201232530031-01-93_1.optimized.cdd93efb.jpg;Point;430745.6142;4581753.662;43.07456142;45.81753662
Ginkgo dels jardins de Moss¤n Cinto Verdaguer;Carrer del Doctor Font i Quer,17;el Poble-sec;Sants-Montjuíc;08038;https://www.barcelona.cat/ca/que-pots-fer-a-bcn/parcs-i-jardins/arbres-interes-local/arbre-d-interes-local-ginkgo-jardins-de-mossen-cinto-verdaguer_99400455074.html;https://estatics-nasia.dtibcn.cat/nasia-pro/media/201610061326180139-03-98_1.optimized.69a9fd26.jpg;Point;430130.5809;4579877.206;43.01305809;45.798772060000005
Ginjoler dels jardins Joan Maragall;Passeig de Santa Madrona,7;el Poble-sec;Sants-Montjuíc;08038;https://www.barcelona.cat/ca/que-pots-fer-a-bcn/parcs-i-jardins/arbres-interes-local/arbre-d-interes-local-ginjoler-jardins-de-joan-maragall_99400455075.html;https://estatics-nasia.dtibcn.cat/nasia-pro/media/201610061346570138-03-98_1.optimized.4a70b0da.jpg;Point;429447.6372;4579903.676;42.94476372;45.79903676
Alzina dels jardins de Bacardí;Travessera de les Corts,118;la Maternitat i Sant Ramon;Les Corts;08028;https://www.barcelona.cat/ca/que-pots-fer-a-bcn/parcs-i-jardins/arbres-interes-local/arbre-d-interes-local-alzina-jardins-de-bacardi_99400455080.html;https://estatics-nasia.dtibcn.cat/nasia-pro/media/201610161509180063-04-94_11.optimized.746606c6.jpg;Point;426901.3197;4581330.094;42.690131969999996;45.81330094
Freixe de fulla estreta del Jardí Botànic Històric;Avinguda dels Montanyans,30;el Poble-sec;Sants-Montjuíc;08038;https://www.barcelona.cat/ca/que-pots-fer-a-bcn/parcs-i-jardins/arbres-interes-local/freixe-de-fulla-estreta-del-jardi-botanic-historic_99400637941.html;https://estatics-nasia.dtibcn.cat/nasia-pro/media/201910041336470171-03-15_1.optimized.055071e8.jpg;Point;429085.5058;4579830.932;42.908550579999996;45.79830932
Garrofer de Can Miralletes;Carrer de Sant Antoni Maria Claret,310;el Camp de l'Arpa del Clot;Sant Martí;08041;https://www.barcelona.cat/ca/que-pots-fer-a-bcn/parcs-i-jardins/arbres-interes-local/garrofer-de-can-miralletes_99400637944.html;https://estatics-nasia.dtibcn.cat/nasia-pro/media/201910041332170172-10-16_1.optimized.b8722835.jpg;Point;431352.7976;4585071.603;43.135279759999996;45.85071603
Plàtan de la  Plaça Catalunya - Fontanella;Carrer de Fontanella,1;la Dreta de l'Eixample;Eixample;08010;https://www.barcelona.cat/ca/que-pots-fer-a-bcn/parcs-i-jardins/arbres-interes-local/platan-de-la-placa-catalunya-fontanella_99400638002.html;https://estatics-nasia.dtibcn.cat/nasia-pro/media/201910041255250177-02-17_1.optimized.17a30866.jpg;Point;430742.4913;4582038.769;43.07424913;45.820387690000004
Tipuanes de la  Plaça Sant Felip Neri;Pl Sant Felip Neri,4;el Barri Gòtic;Ciutat Vella;08002;https://www.barcelona.cat/ca/que-pots-fer-a-bcn/parcs-i-jardins/arbres-interes-local/tipuanes-de-la-placa-sant-felip-neri_99400454937.html;https://estatics-nasia.dtibcn.cat/nasia-pro/media/201610200947590021-01-93_1.optimized.5c8de578.jpg;Point;431027.5645;4581655.377;43.10275645;45.816553770000006
Tilúlers de la Rambla Catalunya;Rambla de Catalunya,70;la Dreta de l'Eixample;Eixample;08007;https://www.barcelona.cat/ca/que-pots-fer-a-bcn/parcs-i-jardins/arbres-interes-local/til-lers-de-la-rambla-catalunya_99400454942.html;https://estatics-nasia.dtibcn.cat/nasia-pro/media/2016%2C10%2C20085235%2C0105-02-96_ROY_6-7182-760x428.jpg;Point;430008.9446;4582565.017;43.00089446;45.82565017
Teix de la Facultat de Geografia i Història;Carrer de Montalegre,8;el Raval;Ciutat Vella;08001;https://www.barcelona.cat/ca/que-pots-fer-a-bcn/parcs-i-jardins/arbres-interes-local/teix-de-la-facultat-de-geografia-i-historia_99400454946.html;https://estatics-nasia.dtibcn.cat/nasia-pro/media/201610201208530159-01-13-web.optimized.f9aa9043.jpg;Point;430393.1454;4581696.068;43.03931454;45.81696068
Washingtònies de la  Plaça Lesseps;Carrer del Torrent de l'Olla,223;la Vila de Gràcia;Gràcia;08023;https://www.barcelona.cat/ca/que-pots-fer-a-bcn/parcs-i-jardins/arbres-interes-local/washingtonies-de-la-placa-lesseps_99400454986.html;https://estatics-nasia.dtibcn.cat/nasia-pro/media/201610051232360022-06-93_1.optimized.f34ec045.jpg;Point;429004.9236;4584332.731;42.90049236;45.84332731
Pins pinyers dels jardins de la Torre Girona;Carrer de Jordi Girona,31;Pedralbes;Les Corts;08034;https://www.barcelona.cat/ca/que-pots-fer-a-bcn/parcs-i-jardins/arbres-interes-local/pins-pinyers-dels-jardins-de-la-torre-girona_99400454995.html;https://estatics-nasia.dtibcn.cat/nasia-pro/media/201610061044560068-04-94_1.optimized.2b5a9b73.jpg;Point;426115.5391;4582327.896;42.61155391;45.823278959999996
Pi pinyer de l'Orlandai;Via Augusta,313;Sarrià;Sarrià-Sant Gervasi;08017;https://www.barcelona.cat/ca/que-pots-fer-a-bcn/parcs-i-jardins/arbres-interes-local/pi-pinyer-de-l-orlandai_99400454998.html;https://estatics-nasia.dtibcn.cat/nasia-pro/media/201610061436250149-05-10_1.optimized.38cd10e9.jpg;Point;426845.9717;4583376.712;42.684597169999996;45.833767120000005
Eritrina del carrer Enamorats;Carrer dels Enamorats,76;la Sagrada Família;Eixample;08013;https://www.barcelona.cat/ca/que-pots-fer-a-bcn/parcs-i-jardins/arbres-interes-local/eritrina-del-carrer-enamorats_99400455039.html;https://estatics-nasia.dtibcn.cat/nasia-pro/media/201610121334100150-02-10_1.optimized.d1e00d1c.jpg;Point;431621.5842;4584026.754;43.16215842;45.84026754
Alzines del Parc del Laberint;Carrer dels Germans Desvalls,48;Horta;Horta-Guinardó;08035;https://www.barcelona.cat/ca/que-pots-fer-a-bcn/parcs-i-jardins/arbres-interes-local/tarongers-de-l-esglesia-de-sant-marti-de-provencals_99400454947.html;https://estatics-nasia.dtibcn.cat/nasia-pro/media/201610121249550043-07-93_1.optimized.1a7cad8e.jpg;Point;428700.7748;4587961.552;42.87007748;45.87961552
Tilúler argentat del passeig de la Bonanova;Pg Bonanova,92;Sarrià;Sarrià-Sant Gervasi;08017;https://www.barcelona.cat/ca/que-hacer-en-bcn/parques-y-jardines/arboles-de-interes-local/arbre-d-interes-local-tell-argentat-pg-bonanova-92_99400454943.html;https://estatics-nasia.dtibcn.cat/nasia-pro/media/201610061014280073-05-94_11.optimized.c6f1232c.jpg;Point;426752.8496;4583700.196;42.67528496;45.83700196
Tarongers de l'Esglèsia de Sant Martí de Provençals;" Plaça d'Ignasi Juliol,4";Sant Martí de Provençals;Sant Martí;08020;https://www.barcelona.cat/ca/que-pots-fer-a-bcn/parcs-i-jardins/arbres-interes-local/tarongers-de-l-esglesia-de-sant-marti-de-provencals_99400454947.html;https://estatics-nasia.dtibcn.cat/nasia-pro/media/99400454947-arbrespalmerescitrusaurantiummartig01.321.jpg;Point;432891.6645;4585781.333;43.28916645;45.85781333
Paraseneg¤lies de la  Plaça Molina;" Plaça de Molina,9999";Sant Gervasi - Galvany;Sarrià-Sant Gervasi;08006;https://www.barcelona.cat/ca/que-pots-fer-a-bcn/parcs-i-jardins/arbres-interes-local/parasenegalies-de-la-placa-molina_99400454950.html;https://estatics-nasia.dtibcn.cat/nasia-pro/media/201610251127020151-05-10_1.optimized.cb5eb619.jpg;Point;428703.9676;4583625.098;42.87039676;45.83625098
Huingan del carrer Joaquim Blume;Carrer de Joaquim Blume,2;el Poble-sec;Sants-Montjuíc;08004;https://www.barcelona.cat/ca/que-pots-fer-a-bcn/parcs-i-jardins/arbres-interes-local/huingan-del-carrer-joaquim-blume_99400454952.html;https://estatics-nasia.dtibcn.cat/nasia-pro/media/201610251243200110-03-96_11.optimized.b604d403.jpg;Point;429362.7439;4580410.46;42.93627439;45.8041046
Roure cerrioide de la Font de Les Planes;Carretera de Vallvidrera a les Planes,107;Vallvidrera, el Tibidabo i les Planes;Sarrià-Sant Gervasi;08017;https://www.barcelona.cat/ca/que-pots-fer-a-bcn/parcs-i-jardins/arbres-interes-local/roure-cerrioide-de-la-font-de-les-planes_99400454954.html;https://estatics-nasia.dtibcn.cat/nasia-pro/media/201610251112300156-05-12-web.optimized.eea7179f.jpg;Point;423865.0517;4586723.041;42.38650517;45.867230410000005
Alvocater de la  Plaça de Can Bruixa;Travessera de les Corts,202;les Corts;Les Corts;08028;https://www.barcelona.cat/ca/que-pots-fer-a-bcn/parcs-i-jardins/arbres-interes-local/alvocater-de-la-placa-de-can-bruixa_99400455082.html;https://estatics-nasia.dtibcn.cat/nasia-pro/media/201610270849410146-04-03_1.optimized.5f7c5355.jpg;Point;427323.9345;4581710.561;42.73239345;45.81710561
S·fora de la  Plaça Santa EnGràcia;" Plaça de Santa EnGràcia,3";la Prosperitat;Nou Barris;08016;https://www.barcelona.cat/ca/que-pots-fer-a-bcn/parcs-i-jardins/arbres-interes-local/sofora-de-la-placa-santa-engracia_99400455083.html;https://estatics-nasia.dtibcn.cat/nasia-pro/media/201610071253380089-08-94_1.optimized.11d360b0.jpg;Point;431547.7451;4588255.548;43.15477451;45.88255548000001
Roure blanc mexic¤ de la Ciutadella;Passeig de Pujades,16;Sant Pere, Santa Caterina i la Ribera;Ciutat Vella;08018;https://www.barcelona.cat/ca/que-pots-fer-a-bcn/parcs-i-jardins/arbres-interes-local/roure-blanc-mexica-de-la-ciutadella_99400454956.html;https://estatics-nasia.dtibcn.cat/nasia-pro/media/201610201310240130-01-97_1.optimized.62471630.jpg;Point;431980.1284;4582248.537;43.19801284;45.822485369999995
Plàtan dels jardins de la Vilúla Amèlia;Carrer d'Ifni,16;Sarrià;Sarrià-Sant Gervasi;08034;https://www.barcelona.cat/ca/que-pots-fer-a-bcn/parcs-i-jardins/arbres-interes-local/platan-dels-jardins-de-la-vil-la-amelia_99400454964.html;https://estatics-nasia.dtibcn.cat/nasia-pro/media/201610061003100142-05-03_1.optimized.fd40a23e.jpg;Point;426668.1696;4582718.103;42.666816960000006;45.82718103
Pi pinyer del Casal de Gent Gran Bascònia;Carrer de Malats,39;Sant Andreu;Sant Andreu;08030;https://www.barcelona.cat/ca/que-pots-fer-a-bcn/parcs-i-jardins/arbres-interes-local/pi-pinyer-del-casal-de-gent-gran-basconia_99400454971.html;https://estatics-nasia.dtibcn.cat/nasia-pro/media/201610071245290122-09-96_1.optimized.9c34008e.jpg;Point;432109.2768;4587493.368;43.21092768;45.87493368
Xicrandes de la  Plaça Sagrada Família;" Plaça de la Sagrada Família,9999";la Sagrada Família;Eixample;08013;https://www.barcelona.cat/ca/que-pots-fer-a-bcn/parcs-i-jardins/arbres-interes-local/xicrandes-de-la-placa-sagrada-familia_99400454975.html;https://estatics-nasia.dtibcn.cat/nasia-pro/media/201610141104510127-02-97_11.optimized.5f131764.jpg;Point;430883.3884;4583783.393;43.08833884;45.83783393
Eucaliptus blanc del parc del Castell de l'Oreneta;Carrer de Joan Orp¡,16;Sarrià;Sarrià-Sant Gervasi;08034;https://www.barcelona.cat/ca/que-pots-fer-a-bcn/parcs-i-jardins/arbres-interes-local/eucaliptus-blanc-del-parc-del-castell-de-l-oreneta_99400455015.html;https://estatics-nasia.dtibcn.cat/nasia-pro/media/201610061101500124-05-97_1.optimized.e8d655a4.jpg;Point;425709.1308;4583294.241;42.57091308;45.83294241
Eucaliptus blanc de la Vilúla Amèlia;Carrer de Santa Amèlia,2;Sarrià;Sarrià-Sant Gervasi;08034;https://www.barcelona.cat/ca/que-pots-fer-a-bcn/parcs-i-jardins/arbres-interes-local/eucaliptus-blanc-de-la-vil-la-amelia_99400455016.html;https://estatics-nasia.dtibcn.cat/nasia-pro/media/201610061019420094-05-94_1.optimized.15d417d5.jpg;Point;426655.2777;4582749.545;42.66552777;45.82749545
Washingtònies de la  Plaça de la Torre Llobeta;Carrer de Santa Fe,2;Vilapicina i la Torre Llobeta;Nou Barris;08031;https://www.barcelona.cat/ca/que-pots-fer-a-bcn/parcs-i-jardins/arbres-interes-local/washingtonies-de-la-placa-de-la-torre-llobeta_99400454984.html;https://estatics-nasia.dtibcn.cat/nasia-pro/media/201610121244010086-08-94_1.optimized.a343128a.jpg;Point;430971.81;4586445.358;43.097181;45.86445358
Eucaliptus vermells del carrer Germans Serra;Carrer dels Germans Serra,1;el Besòs i el Maresme;Sant Martí;08019;https://www.barcelona.cat/ca/que-pots-fer-a-bcn/parcs-i-jardins/arbres-interes-local/eucaliptus-vermells-del-carrer-germans-serra_99400455017.html;https://estatics-nasia.dtibcn.cat/nasia-pro/media/201610111024140020-10-93_1.optimized.b8bbf93c.jpg;Point;434267.5342;4585433.734;43.42675342;45.85433734
Washingtònies del carrer Camil Fabra;Carrer de Camil Fabra,16;Sant Andreu;Sant Andreu;08030;https://www.barcelona.cat/ca/que-pots-fer-a-bcn/parcs-i-jardins/arbres-interes-local/washingtonies-del-carrer-camil-fabra_99400454985.html;https://estatics-nasia.dtibcn.cat/nasia-pro/media/201610061511250004-09-93_1.optimized.087fb5fb.jpg;Point;432081.2132;4586746.851;43.20812132;45.867468509999995
Eritrina dels jardins del Teatre Grec;Passeig de Santa Madrona,30;el Poble-sec;Sants-Montjuíc;08038;https://www.barcelona.cat/ca/que-pots-fer-a-bcn/parcs-i-jardins/arbres-interes-local/eritrina-dels-jardins-del-teatre-grec_99400455020.html;https://estatics-nasia.dtibcn.cat/nasia-pro/media/201610061435140023-03-93_1.optimized.78cdcb9a.jpg;Point;429633.2393;4580093.396;42.96332393;45.800933959999995
Washingtònies de la  Plaça del Dr. Letamendi;Carrer d'Aragó,215;l'Antiga Esquerra de l'Eixample;Eixample;08007;https://www.barcelona.cat/ca/que-pots-fer-a-bcn/parcs-i-jardins/arbres-interes-local/washingtonies-de-la-placa-del-dr-letamendi_99400454987.html;https://estatics-nasia.dtibcn.cat/nasia-pro/media/201610141010010040-02-93_1.optimized.bb63fa89.jpg;Point;429801.2103;4582288.804;42.98012103;45.822888039999995
Washingtònies dels jardins de Can Farrero;Carrer dels Alts Forns,74;la Marina de Port;Sants-Montjuíc;08038;https://www.barcelona.cat/ca/que-pots-fer-a-bcn/parcs-i-jardins/arbres-interes-local/platans-i-washingtonies-dels-jardins-de-can-farrero_99400454988.html;https://estatics-nasia.dtibcn.cat/nasia-pro/media/201610200928230100-03-94_2_Washingtonia-robusta.optimized.b6b54a65.jpg;Point;428223.3463;4578903.996;42.82233463;45.789039960000004
Plàtans dels jardins de Can Farrero;Carrer de la Mare de Déu de Port,241;la Marina de Port;Sants-Montjuíc;08038;https://www.barcelona.cat/ca/que-pots-fer-a-bcn/parcs-i-jardins/arbres-interes-local/platans-i-washingtonies-dels-jardins-de-can-farrero_99400454965.html;https://estatics-nasia.dtibcn.cat/nasia-pro/media/201610270906110100-03-94_1_Platanus-hispanica.optimized.eb2ea686.jpg;Point;428227.4743;4578864.652;42.82274743;45.78864652
Tipuanes del passatge Maluquer;Passatge de Maluquer,4;Sant Gervasi - la Bonanova;Sarrià-Sant Gervasi;08022;https://www.barcelona.cat/ca/que-pots-fer-a-bcn/parcs-i-jardins/arbres-interes-local/tipuanes-del-passatge-maluquer_99400454992.html;https://estatics-nasia.dtibcn.cat/nasia-pro/media/201610251102350163-05-13_1.optimized.e1ba9985.jpg;Point;427881.0116;4584483.629;42.788101160000004;45.844836289999996
Tipuanes de la  Plaça Virrei Amat;" Plaça del Virrei Amat,9";Vilapicina i la Torre Llobeta;Nou Barris;08016;https://www.barcelona.cat/ca/que-pots-fer-a-bcn/parcs-i-jardins/arbres-interes-local/tipuanes-de-la-placa-virrei-amat_99400454993.html;https://estatics-nasia.dtibcn.cat/nasia-pro/media/201610121227130123-08-96_1.optimized.edf7669c.jpg;Point;431056.0321;4586838.71;43.10560321;45.8683871
Pi pinyer del carrer Bosch i Gimpera;Carrer de Bosch i Gimpera,5;Pedralbes;Les Corts;08034;https://www.barcelona.cat/ca/que-pots-fer-a-bcn/parcs-i-jardins/arbres-interes-local/pi-pinyer-del-carrer-bosch-i-gimpera_99400454997.html;https://estatics-nasia.dtibcn.cat/nasia-pro/media/201610011039100111-04-96_1.optimized.67d1ba57.jpg;Point;426303.1861;4582838.944;42.630318609999996;45.82838944
Pineda del Parc del Turó de la Peira;Carrer de Cam¢s,1;el Turó de la Peira;Nou Barris;08031;https://www.barcelona.cat/ca/que-pots-fer-a-bcn/parcs-i-jardins/arbres-interes-local/pineda-del-parc-del-turo-de-la-peira_99400455001.html;https://estatics-nasia.dtibcn.cat/nasia-pro/media/201610121232280041-08-93_1.optimized.4848fc50.jpg;Point;430199.1104;4587228.202;43.019911040000004;45.87228201999999
Alzina de Santa Maria de Vallvidrera;Carretera de l'Esglèsia,5;Vallvidrera, el Tibidabo i les Planes;Sarrià-Sant Gervasi;08017;https://www.barcelona.cat/ca/que-pots-fer-a-bcn/parcs-i-jardins/arbres-interes-local/alzina-de-santa-maria-de-vallvidrera_99400454961.html;https://estatics-nasia.dtibcn.cat/nasia-pro/media/201610061357530157-05-12_1.optimized.0fac6cf2.jpg;Point;424948.6223;4585577.734;42.494862229999995;45.85577734
Plàtan del carrer Cantàbria;Carrer de Cantàbria,71;la Verneda i la Pau;Sant Martí;08020;https://www.barcelona.cat/ca/que-pots-fer-a-bcn/parcs-i-jardins/arbres-interes-local/platan-del-carrer-cantabria_99400454963.html;https://estatics-nasia.dtibcn.cat/nasia-pro/media/201610111016060129-10-97_1.optimized.2b40857c.jpg;Point;433053.8269;4586100.925;43.30538269;45.861009249999995
Plàtan oriental de la Universitat;Gran Via de les Corts Catalanes,585;l'Antiga Esquerra de l'Eixample;Eixample;08007;https://www.barcelona.cat/ca/que-pots-fer-a-bcn/parcs-i-jardins/arbres-interes-local/platan-oriental-de-la-universitat_99400454967.html;https://estatics-nasia.dtibcn.cat/nasia-pro/media/201610121340070003-02-93_1.optimized.b2769d21.jpg;Point;430108.2393;4581985.281;43.01082393;45.81985281000001
Plàtans de les Rambles;Carrer la Rambla,142;el Barri Gòtic;Ciutat Vella;08002;https://www.barcelona.cat/ca/que-pots-fer-a-bcn/parcs-i-jardins/arbres-interes-local/platans-de-les-rambles_99400454968.html;https://estatics-nasia.dtibcn.cat/nasia-pro/media/201610250947090152-01-10_1.optimized.f06108cb.jpg;Point;430623.3944;4581870.634;43.06233944;45.81870634
Pinus roxburghii de l'Av. Diagonal;Avinguda Diagonal,652;les Corts;Les Corts;08034;https://www.barcelona.cat/ca/que-pots-fer-a-bcn/parcs-i-jardins/arbres-interes-local/pinus-roxburghii-de-l-av-diagonal_99400454970.html;https://estatics-nasia.dtibcn.cat/nasia-pro/media/201610251024480042-04-93_1.optimized.4db88f77.jpg;Point;427391.2417;4582385.613;42.739124170000004;45.823856129999996
Palmera del Senegal de la  Plaça d'Urquinaona;" Plaça d'Urquinaona,6";la Dreta de l'Eixample;Eixample;08010;https://www.barcelona.cat/ca/que-pots-fer-a-bcn/parcs-i-jardins/arbres-interes-local/palmera-del-senegal-de-la-placa-d-urquinaona_99400455006.html;https://estatics-nasia.dtibcn.cat/nasia-pro/media/201610141216530012-02-93_1.optimized.909e708d.jpg;Point;430891.0407;4582324.737;43.089104070000005;45.82324737
Datiler de la Casa de l'Ardiaca;Carrer de Santa Llúcia,1;el Barri Gòtic;Ciutat Vella;08002;https://www.barcelona.cat/ca/que-pots-fer-a-bcn/parcs-i-jardins/arbres-interes-local/datiler-de-la-casa-de-l-ardiaca_99400455014.html;https://estatics-nasia.dtibcn.cat/nasia-pro/media/201610250957530002-01-93_1.optimized.3931b891.jpg;Point;431078.707;4581731.056;43.1078707;45.817310559999996
Eucaliptus vermell de la  Plaça de les Caramelles;" Plaça de les Caramelles,5";el Raval;Ciutat Vella;08001;https://www.barcelona.cat/ca/que-pots-fer-a-bcn/parcs-i-jardins/arbres-interes-local/eucaliptus-vermell-de-la-placa-de-les-caramelles_99400455018.html;https://estatics-nasia.dtibcn.cat/nasia-pro/media/201610201022410052-01-94_1.optimized.aa9dac2d.jpg;Point;430411.0315;4581542.693;43.04110315;45.81542693
Eucaliptus vermell de la Guineueta;Carrer de la Gasela,23;la Guineueta;Nou Barris;08042;https://www.barcelona.cat/ca/que-pots-fer-a-bcn/parcs-i-jardins/arbres-interes-local/eucaliptus-vermell-de-la-guineueta_99400455019.html;https://estatics-nasia.dtibcn.cat/nasia-pro/media/201610061446470018-08-93_1.optimized.c92f24f1.jpg;Point;430514.9884;4587935.545;43.05149884;45.87935545
Còcul de l'Arxiu Joan Maragall;Carrer d'Alfons XII,79;Sant Gervasi - Galvany;Sarrià-Sant Gervasi;08006;https://www.barcelona.cat/ca/que-pots-fer-a-bcn/parcs-i-jardins/arbres-interes-local/cocul-de-l-arxiu-joan-maragall_99400455024.html;https://estatics-nasia.dtibcn.cat/nasia-pro/media/201610031055440077-05-94_1.optimized.7996d2d2.jpg;Point;428688.8528;4583567.401;42.86888528;45.83567401
Cedres dels jardins del Palau Reial de Pedralbes;Avinguda Diagonal,686;Pedralbes;Les Corts;08034;https://www.barcelona.cat/ca/que-pots-fer-a-bcn/parcs-i-jardins/arbres-interes-local/cedres-dels-jardins-del-palau-reial-de-pedralbes_99400455027.html;https://estatics-nasia.dtibcn.cat/nasia-pro/media/201610251042180045-04-93_1.optimized.f778bad8.jpg;Point;426246.4032;4582213.414;42.62464032;45.822134139999996
Lledoner del carrer Casp;Carrer de Casp,49;la Dreta de l'Eixample;Eixample;08010;https://www.barcelona.cat/ca/que-pots-fer-a-bcn/parcs-i-jardins/arbres-interes-local/lledoner-del-carrer-casp_99400455065.html;https://estatics-nasia.dtibcn.cat/nasia-pro/media/201610200921590140-02-98_1.optimized.70c3e862.jpg;Point;431008.5573;4582664.684;43.10085573;45.82664684
Lagunària dels jardins del Teatre Grec;Passatge de Martras,26;el Poble-sec;Sants-Montjuíc;08004;https://www.barcelona.cat/ca/que-pots-fer-a-bcn/parcs-i-jardins/arbres-interes-local/lagunaria-dels-jardins-del-teatre-grec_99400455071.html;https://estatics-nasia.dtibcn.cat/nasia-pro/media/201610061502000010-03-93_1.optimized.e11861b7.jpg;Point;429703.7177;4580150.781;42.97037177;45.801507810000004
Grevillea de la Via Augusta;Via Augusta,241;Sant Gervasi - Galvany;Sarrià-Sant Gervasi;08021;https://www.barcelona.cat/ca/que-pots-fer-a-bcn/parcs-i-jardins/arbres-interes-local/grevillea-de-la-via-augusta_99400455072.html;https://estatics-nasia.dtibcn.cat/nasia-pro/media/99400455072-arbrespalmeresgrevillearobustasarriag01.optimized.7141.jpg;Point;427685.0246;4583286.568;42.76850246;45.83286568
Ginkgo dels jardins de la Universitat;Carrer d'Aribau,16;l'Antiga Esquerra de l'Eixample;Eixample;08011;https://www.barcelona.cat/ca/que-pots-fer-a-bcn/parcs-i-jardins/arbres-interes-local/ginkgo-dels-jardins-de-la-universitat_99400455073.html;https://estatics-nasia.dtibcn.cat/nasia-pro/media/201610200911030059-02-94_1.optimized.333d2948.jpg;Point;429986.1055;4581997.23;42.99861055;45.8199723
Garrofer de la  Plaça de la Natura del Park Güell;Carrer d'Olot,15;la Salut;Gràcia;08024;https://www.barcelona.cat/ca/que-pots-fer-a-bcn/parcs-i-jardins/arbres-interes-local/garrofer-de-la-placa-de-la-natura-del-park-guell_99400455078.html;https://estatics-nasia.dtibcn.cat/nasia-pro/media/201610031329390132-06-97_1.optimized.02b70215.jpg;Point;429204.5985;4585082.556;42.92045985;45.85082556
Arbres de l'amor de la  Plaça Joanic;Carrer de Bruniquer,59;la Vila de Gràcia;Gràcia;08024;https://www.barcelona.cat/ca/que-pots-fer-a-bcn/parcs-i-jardins/arbres-interes-local/arbres-de-l-amor-de-la-placa-joanic_99400455041.html;https://estatics-nasia.dtibcn.cat/nasia-pro/media/201610031323050118-06-96_5.optimized.4cfaff2a.jpg;Point;429978.1772;4584126.287;42.99781772;45.841262869999994
Arbre de l'amor del Turó de la Rovira;Carrer del Panorama,25;Can Baró;Horta-Guinardó;08032;https://www.barcelona.cat/ca/que-pots-fer-a-bcn/parcs-i-jardins/arbres-interes-local/arbre-de-l-amor-del-turo-de-la-rovira_99400455042.html;https://estatics-nasia.dtibcn.cat/nasia-pro/media/201610121256330080-07-94_1.optimized.bc5a8afd.jpg;Point;430164.489;4585614.833;43.0164489;45.856148329999996
Pebrer bord dels jardins de la Vilúla Amèlia;Carrer d'Eduardo Conde,8;Sarrià;Sarrià-Sant Gervasi;08034;https://www.barcelona.cat/ca/que-pots-fer-a-bcn/parcs-i-jardins/arbres-interes-local/pebrer-bord-dels-jardins-de-la-vil-la-amelia_99400455048.html;https://estatics-nasia.dtibcn.cat/nasia-pro/media/201610031214140035-05-93_1.optimized.c60f0bf0.jpg;Point;426594.8143;4582665.773;42.65948143;45.82665773
Palmeres can¤ries de la Vilúla Amèlia;Carrer de Santa Amèlia,2;Sarrià;Sarrià-Sant Gervasi;08034;https://www.barcelona.cat/ca/que-pots-fer-a-bcn/parcs-i-jardins/arbres-interes-local/palmeres-canaries-de-la-vil-la-amelia_99400455052.html;https://estatics-nasia.dtibcn.cat/nasia-pro/media/201610061442250098-05-94_1.optimized.8f13be6a.jpg;Point;426634.7359;4582710.892;42.66347359;45.82710892
Nolines de la Creu de Pedralbes;Avinguda d'Esplugues,119;Pedralbes;Les Corts;08034;https://www.barcelona.cat/ca/que-pots-fer-a-bcn/parcs-i-jardins/arbres-interes-local/nolines-de-la-creu-de-pedralbes_99400455055.html;https://estatics-nasia.dtibcn.cat/nasia-pro/media/201610270840380007-04-93_1.optimized.de89ca68.jpg;Point;425884.2732;4583031.97;42.58842732;45.8303197
Morera del Bon Pastor;Carrer de la S¤quia Madriguera,20;el Bon Pastor;Sant Andreu;08030;https://www.barcelona.cat/ca/que-pots-fer-a-bcn/parcs-i-jardins/arbres-interes-local/morera-del-bon-pastor_99400455056.html;https://estatics-nasia.dtibcn.cat/nasia-pro/media/201610061505210090-09-94_1.optimized.cc3fef29.jpg;Point;433406.9433;4587701.457;43.34069433;45.87701457000001
Freixe vermell americ¤ del Jardí Botànic Històric;Avinguda dels Montanyans,27;el Poble-sec;Sants-Montjuíc;08038;https://www.barcelona.cat/ca/que-pots-fer-a-bcn/parcs-i-jardins/arbres-interes-local/freixe-vermell-america-del-jardi-botanic-historic_99400455008.html;https://estatics-nasia.dtibcn.cat/nasia-pro/media/201610061058140055-03-94_1.optimized.75c41ac5.jpg;Point;429066.1069;4579865.318;42.90661069;45.79865318
Figueres del parc de les Aigües;Carrer d'Abd el-Kader,2;el Baix Guinardó;Horta-Guinardó;08024;https://www.barcelona.cat/ca/que-pots-fer-a-bcn/parcs-i-jardins/arbres-interes-local/figueres-del-parc-de-les-aigues_99400455012.html;https://estatics-nasia.dtibcn.cat/nasia-pro/media/201610121142560119-07-96_1.optimized.10342b61.jpg;Point;430240.2294;4584983.901;43.02402294;45.84983901
Datiler del passatge de les Palmeres;Passatge de les Palmeres,30;Vilapicina i la Torre Llobeta;Nou Barris;08031;https://www.barcelona.cat/ca/que-pots-fer-a-bcn/parcs-i-jardins/arbres-interes-local/datiler-del-passatge-de-les-palmeres_99400455021.html;https://estatics-nasia.dtibcn.cat/nasia-pro/media/201610121303090087-08-94_1.optimized.7220811b.jpg;Point;430452.713;4586733.566;43.045271299999996;45.867335659999995
Còcul de la Clínica Corachan;Carrer de Gironella,2;les Tres Torres;Sarrià-Sant Gervasi;08017;https://www.barcelona.cat/ca/que-pots-fer-a-bcn/parcs-i-jardins/arbres-interes-local/cocul-de-la-clinica-corachan_99400455023.html;https://estatics-nasia.dtibcn.cat/nasia-pro/media/201610061335300134-05-98_1.optimized.2eb25e23.jpg;Point;427298.5345;4582804.237;42.72985345;45.82804237
Cedre de la Torre Castanyer;Passeig de Sant Gervasi,5;Sant Gervasi - la Bonanova;Sarrià-Sant Gervasi;08022;https://www.barcelona.cat/ca/que-pots-fer-a-bcn/parcs-i-jardins/arbres-interes-local/cedre-de-la-torre-castanyer_99400455026.html;https://estatics-nasia.dtibcn.cat/nasia-pro/media/201610121321130069-05-94_1.optimized.ace5cf97.jpg;Point;427634.1479;4584428.019;42.76341479;45.844280190000006
Casuarina del parc de la Ciutadella;Passeig de Pujades,16;Sant Pere, Santa Caterina i la Ribera;Ciutat Vella;08018;https://www.barcelona.cat/ca/que-pots-fer-a-bcn/parcs-i-jardins/arbres-interes-local/casuarina-del-parc-de-la-ciutadella_99400455029.html;https://estatics-nasia.dtibcn.cat/nasia-pro/media/201610201321190051-01-94_1.optimized.0291c0bb.jpg;Point;432055.5791;4582305.284;43.205557909999996;45.82305284
Llentiscle de l'Hort de l'Avi;Carrer del Torrent del Remei,14;el Coll;Gràcia;08023;https://www.barcelona.cat/ca/que-pots-fer-a-bcn/parcs-i-jardins/arbres-interes-local/llentiscle-de-l-hort-de-l-avi_99400455063.html;https://estatics-nasia.dtibcn.cat/nasia-pro/media/201610031153270160-06-13_1.optimized.3d569a32.jpg;Point;428889.4879;4585285.163;42.88894879;45.852851629999996
Lledoner del carrer Benet i Mateu;Passeig de Manuel Girona,55;Sarrià;Sarrià-Sant Gervasi;08034;https://www.barcelona.cat/ca/que-pots-fer-a-bcn/parcs-i-jardins/arbres-interes-local/lledoner-del-carrer-benet-i-mateu_99400455066.html;https://estatics-nasia.dtibcn.cat/nasia-pro/media/201610031256230071-05-94_ROY_6-9856.optimized.30ba7a68.jpg;Point;427032.6151;4582650.581;42.70326151;45.82650581
Alzina dels jardins de Can Sentmenat;Passeig de Santa Eulàlia,25;Sarrià;Sarrià-Sant Gervasi;08017;https://www.barcelona.cat/ca/que-pots-fer-a-bcn/parcs-i-jardins/arbres-interes-local/alzina-dels-jardins-de-can-sentmenat_99400455079.html;https://estatics-nasia.dtibcn.cat/nasia-pro/media/201610061114190114-05-96_1.optimized.7d468caa.jpg;Point;425915.1627;4583885.7;42.59151627;45.838857000000004
Alvocater del Teatre Lliure;Passeig de Santa Madrona,40;el Poble-sec;Sants-Montjuíc;08038;https://www.barcelona.cat/ca/que-pots-fer-a-bcn/parcs-i-jardins/arbres-interes-local/alvocater-del-teatre-lliure_99400455081.html;https://estatics-nasia.dtibcn.cat/nasia-pro/media/201610061110250109-03-96_1.optimized.009a56ca.jpg;Point;429511.0495;4580223.266;42.95110495;45.80223266
Plàtans del carrer Pere IV;Carrer de Pere IV,511;Provençals del Poblenou;Sant Martí;08020;https://www.barcelona.cat/ca/que-pots-fer-a-bcn/parcs-i-jardins/arbres-interes-local/platans-del-carrer-pere-iv_99400454966.html;https://estatics-nasia.dtibcn.cat/nasia-pro/media/201610111036350008-10-93_1.optimized.95413a6d.jpg;Point;433938.354;4585484.089;43.3938354;45.85484089
Plàtans de la  Plaça Nadal;" Plaça de Nadal,7";Sant Andreu;Sant Andreu;08030;https://www.barcelona.cat/ca/que-pots-fer-a-bcn/parcs-i-jardins/arbres-interes-local/platans-de-la-placa-nadal_99400454969.html;https://estatics-nasia.dtibcn.cat/nasia-pro/media/201610110943380034-09-93_1.optimized.d7d78fea.jpg;Point;432202.575;4586687.644;43.2202575;45.866876440000006
Xiprers calbs del Parc de la Ciutadella;Passeig de Pujades,16;Sant Pere, Santa Caterina i la Ribera;Ciutat Vella;08018;https://www.barcelona.cat/ca/que-pots-fer-a-bcn/parcs-i-jardins/arbres-interes-local/xiprers-calbs-del-parc-de-la-ciutadella_99400454974.html;https://estatics-nasia.dtibcn.cat/nasia-pro/media/201610201015190046-01-93_1.optimized.16284277.jpg;Point;432030.4295;4582148.562;43.203042950000004;45.82148562
Xicrandes del carrer Alfons XII;Carrer d'Alfons XII,49;Sant Gervasi - Galvany;Sarrià-Sant Gervasi;08006;https://www.barcelona.cat/ca/que-pots-fer-a-bcn/parcs-i-jardins/arbres-interes-local/xicrandes-del-carrer-alfons-xii_99400454977.html;https://estatics-nasia.dtibcn.cat/nasia-pro/media/201610031222230070-05-94_1.optimized.447b8e0e.jpg;Point;428819.9585;4583450.418;42.88199585;45.834504179999996
Washingtònies de l'Avinguda Francesc Ferrer i Guàrdia;Carrer de la Dàlia,46;la Font de la Guatlla;Sants-Montjuíc;08004;https://www.barcelona.cat/ca/que-pots-fer-a-bcn/parcs-i-jardins/arbres-interes-local/washingtonies-de-l-avinguda-francesc-ferrer-i-guardia_99400454979.html;https://estatics-nasia.dtibcn.cat/nasia-pro/media/201610061514060097-03-94_1.optimized.7f742faa.jpg;Point;428564.2847;4580123.281;42.856428470000004;45.80123281
Carpí del Jardí Botànic Històric;Avinguda de l'Estadi,37;el Poble-sec;Sants-Montjuíc;08038;https://www.barcelona.cat/ca/que-pots-fer-a-bcn/parcs-i-jardins/arbres-interes-local/carpi-del-jardi-botanic-historic_99400455031.html;https://estatics-nasia.dtibcn.cat/nasia-pro/media/201610061051560054-03-94_1.optimized.0b9ce632.jpg;Point;429077.1388;4579847.334;42.90771388;45.79847334
Araucaria del Teatre Grec;Passatge de Martras,20;el Poble-sec;Sants-Montjuíc;08004;https://www.barcelona.cat/ca/que-pots-fer-a-bcn/parcs-i-jardins/arbres-interes-local/araucaria-del-teatre-grec_99400455033.html;https://estatics-nasia.dtibcn.cat/nasia-pro/media/201610270914360154-03-11_1.optimized.8c473c2f.jpg;Point;429684.4338;4580214.92;42.96844338;45.8021492
Corísies de Drassanes;Av Paralúlel,2;el Raval;Ciutat Vella;08001;https://www.barcelona.cat/ca/que-pots-fer-a-bcn/parcs-i-jardins/arbres-interes-local/corisies-de-drassanes_99400455040.html;https://estatics-nasia.dtibcn.cat/nasia-pro/media/201610201327370104-01-96_1.optimized.f0985c46.jpg;Point;431062.9623;4580691.093;43.10629623;45.80691093
Roure martinenc de l'Escola Lexia;Carrer d'Esteve Terradas,77;Vallcarca i els Penitents;Gràcia;08023;https://www.barcelona.cat/ca/que-pots-fer-a-bcn/parcs-i-jardins/arbres-interes-local/roure-martinenc-de-l-escola-lexia_99400454958.html;https://estatics-nasia.dtibcn.cat/nasia-pro/media/201610031317080078-06-94_1.optimized.c647fa4c.jpg;Point;428095.9786;4585132.543;42.80959786;45.851325429999996
Roure cerrioide de la Font del Racó;Avinguda del Tibidabo,74;Sant Gervasi - la Bonanova;Sarrià-Sant Gervasi;08035;https://www.barcelona.cat/ca/que-pots-fer-a-bcn/parcs-i-jardins/arbres-interes-local/roure-cerrioide-de-la-font-del-raco_99400454959.html;https://estatics-nasia.dtibcn.cat/nasia-pro/media/201610061107590025-05-93_1.optimized.471dcd78.jpg;Point;427323.9787;4585272.291;42.73239787;45.852722910000004
Pi pinyer del Palau de Pedralbes;Carrer de Jordi Girona,31;Pedralbes;Les Corts;08034;https://www.barcelona.cat/ca/que-pots-fer-a-bcn/parcs-i-jardins/arbres-interes-local/pi-pinyer-del-palau-de-pedralbes_99400454972.html;https://estatics-nasia.dtibcn.cat/nasia-pro/media/201610251046340028-04-93_1.optimized.c9890535.jpg;Point;426091.1723;4582234.323;42.609117229999995;45.82234323
Washingtònies de la casa de la Misericòrdia;Carrer d'Elisabets,8;el Raval;Ciutat Vella;08001;https://www.barcelona.cat/ca/que-pots-fer-a-bcn/parcs-i-jardins/arbres-interes-local/washingtonies-de-la-casa-de-la-misericordia_99400454978.html;;Point;430488.9177;4581668.185;43.04889177;45.816681849999995
Washingtònies de la Masia Can Sert;Carrer de Velàzquez,2;Vallcarca i els Penitents;Gràcia;08023;https://www.barcelona.cat/ca/que-pots-fer-a-bcn/parcs-i-jardins/arbres-interes-local/washingtonies-de-la-masia-can-sert_99400454980.html;https://estatics-nasia.dtibcn.cat/nasia-pro/media/201610201220450096-01-94_1.optimized.196c17c8.jpg;Point;428831.8532;4584405.489;42.88318532;45.84405489
Pollancre del Canad¤ del Parc de l'Estació del Nord;Parc de l'Estació del Nord,;;;08013;https://www.barcelona.cat/ca/que-pots-fer-a-bcn/parcs-i-jardins/arbres-interes-local/pollancre-del-canada-del-parc-de-l-estacio-del-nord_99400679820.html;https://estatics-nasia.dtibcn.cat/nasia-pro/media/201610141001320106-02-96_1.optimized.b633eb45.jpg;Point;431761.5172;4582737.476;43.17615172;45.82737476
Palmeres can¤ries de l'Antiga Torre Bayer;Carrer de Bailén,51;la Dreta de l'Eixample;Eixample;08009;https://www.barcelona.cat/ca/que-pots-fer-a-bcn/parcs-i-jardins/arbres-interes-local/palmeres-canaries-de-l-antiga-torre-bayer_99400679821.html;https://estatics-nasia.dtibcn.cat/nasia-pro/media/Palmeres_canaries_de_lAntiga_Torre_Bayer.optimized.12ab602f.jpg;Point;430925.9351;4582877.039;43.09259351;45.828770389999995
Washingtònies de la carretera de Miramar;Carretera de Miramar,2;el Poble-sec;Sants-Montjuíc;08038;https://www.barcelona.cat/ca/que-pots-fer-a-bcn/parcs-i-jardins/arbres-interes-local/washingtonies-de-la-carretera-de-miramar_99400454981.html;https://estatics-nasia.dtibcn.cat/nasia-pro/media/201610200839020108-03-96_1.optimized.a6a87a70.jpg;Point;430694.8571;4580029.418;43.06948571;45.800294179999995
Arbreda de la  Plaça del Nord;" Plaça del Nord,7";la Vila de Gràcia;Gràcia;08024;https://www.barcelona.cat/ca/que-pots-fer-a-bcn/parcs-i-jardins/arbres-interes-local/arbreda-de-la-placa-del-nord_99400454991.html;https://estatics-nasia.dtibcn.cat/nasia-pro/media/201610031159440049-06-93_Tipuana-tipu_6-7732.optimized.4e778d27.jpg;Point;429422.1085;4584305.447;42.942210849999995;45.84305447
Pi pinyer de la Travessera de les Corts;Travessera de les Corts,275;les Corts;Les Corts;08014;https://www.barcelona.cat/ca/que-pots-fer-a-bcn/parcs-i-jardins/arbres-interes-local/pi-pinyer-de-la-travessera-de-les-corts_99400454994.html;https://estatics-nasia.dtibcn.cat/nasia-pro/media/201610161459320001-04-93_11.optimized.751739b7.jpg;Point;427590.1708;4581985.248;42.75901708;45.819852479999994
Pins canaris del Colúlegi de les Teresianes;Ronda del General Mitre,81;les Tres Torres;Sarrià-Sant Gervasi;08017;https://www.barcelona.cat/ca/que-pots-fer-a-bcn/parcs-i-jardins/arbres-interes-local/pins-canaris-del-col-legi-de-les-teresianes_99400454999.html;https://estatics-nasia.dtibcn.cat/nasia-pro/media/201610061328410072-05-94_11.optimized.48a13f4a.jpg;Point;427557.6478;4583465.6;42.75576478;45.834655999999995
Pi  Josep de Vallcarca;Passatge d'Isabel,1;Vallcarca i els Penitents;Gràcia;08023;https://www.barcelona.cat/ca/que-pots-fer-a-bcn/parcs-i-jardins/arbres-interes-local/pi-josep-de-vallcarca_99400455000.html;https://estatics-nasia.dtibcn.cat/nasia-pro/media/201610051117520141-06-03_1.optimized.f39f78a4.jpg;Point;428684.2315;4585033.149;42.86842315;45.85033149
Pi blanc de Can Ponsic;Carrer d'Enric Giménez,14;Sarrià;Sarrià-Sant Gervasi;08034;https://www.barcelona.cat/ca/que-pots-fer-a-bcn/parcs-i-jardins/arbres-interes-local/pi-blanc-de-can-ponsic_99400455005.html;https://estatics-nasia.dtibcn.cat/nasia-pro/media/201610061407350155-05-12_1.optimized.d2953e34.jpg;Point;426332.2226;4583141.483;42.63322226;45.83141483
Freixe de fulla estreta del carrer Tàrrega;Carrer de Tàrrega,41;el Bon Pastor;Sant Andreu;08030;https://www.barcelona.cat/ca/que-pots-fer-a-bcn/parcs-i-jardins/arbres-interes-local/freixe-de-fulla-estreta-del-carrer-tarrega_99400455007.html;https://estatics-nasia.dtibcn.cat/nasia-pro/media/201610111244350029-09-93_1.optimized.7e565180.jpg;Point;433666.0216;4587647.021;43.36660216;45.876470209999994
Freixes de la  Plaça Galúla Placídia;" Plaça de Galúla Plac¡dia,16";la Vila de Gràcia;Gràcia;08006;https://www.barcelona.cat/ca/que-pots-fer-a-bcn/parcs-i-jardins/arbres-interes-local/freixes-de-la-placa-gal-la-placidia_99400455009.html;https://estatics-nasia.dtibcn.cat/nasia-pro/media/201610031306200009-06-93_1.optimized.9c9d12b5.jpg;Point;429189.735;4583425.81;42.9189735;45.83425809999999
Cirerer de Santa Llúcia del parc del Castell de l'Oreneta;Carrer de Conrad Xalabarder,2;Pedralbes;Les Corts;08034;https://www.barcelona.cat/ca/que-pots-fer-a-bcn/parcs-i-jardins/arbres-interes-local/cirerer-de-santa-llucia-del-parc-del-castell-de-l-oreneta_99400455025.html;https://estatics-nasia.dtibcn.cat/nasia-pro/media/201610060951380115-05-96_1.optimized.423febb0.jpg;Point;425510.5327;4583326.651;42.55105327;45.833266509999994
Teix dels jardins de la Granja Vella de Martí-Codolar;Avinguda de Martí-Codolar,12;la Vall d'Hebron;Horta-Guinardó;08035;https://www.barcelona.cat/ca/que-pots-fer-a-bcn/parcs-i-jardins/arbres-interes-local/teix-dels-jardins-de-la-granja-vella-de-marti-codolar_99400454944.html;https://estatics-nasia.dtibcn.cat/nasia-pro/media/201610121200060082-07-94_1.optimized.b5707bba.jpg;Point;428914.9389;4586677.23;42.89149389;45.8667723
Roure cerrioide de l'aparcament de Les Planes;Carretera de Vallvidrera a les Planes,107;Vallvidrera, el Tibidabo i les Planes;Sarrià-Sant Gervasi;08017;https://www.barcelona.cat/ca/que-pots-fer-a-bcn/parcs-i-jardins/arbres-interes-local/roure-cerrioide-de-l-aparcament-de-les-planes_99400454953.html;https://estatics-nasia.dtibcn.cat/nasia-pro/media/201610061346040158-05-12_1.optimized.0721b99c.jpg;Point;423923.1733;4586701.555;42.392317330000004;45.86701555
Grevillea dels jardins dels Drets Humans;Carretera del Prat,2;la Marina de Port;Sants-Montjuíc;08038;https://www.barcelona.cat/ca/que-pots-fer-a-bcn/parcs-i-jardins/arbres-interes-local/grevillea-dels-jardins-dels-drets-humans_99400454955.html;https://estatics-nasia.dtibcn.cat/nasia-pro/media/201610200831200153-03-11_1-.optimized.b613e096.jpg;Point;427790.7675;4579222.613;42.77907675;45.792226129999996
Teix dels jardins de la Universitat;Carrer de la Diputació,229;l'Antiga Esquerra de l'Eixample;Eixample;08007;https://www.barcelona.cat/ca/que-pots-fer-a-bcn/parcs-i-jardins/arbres-interes-local/teix-dels-jardins-de-la-universitat_99400454945.html;https://estatics-nasia.dtibcn.cat/nasia-pro/media/201610140956050060-02-94_1.optimized.673e304a.jpg;Point;430010.1193;4582068.056;43.001011930000004;45.82068056
Camforer del Jardí Botànic Històric;Avinguda dels Montanyans,30;el Poble-sec;Sants-Montjuíc;08038;https://www.barcelona.cat/ca/que-pots-fer-a-bcn/parcs-i-jardins/arbres-interes-local/camforer-del-jardi-botanic-historic_99400455032.html;https://estatics-nasia.dtibcn.cat/nasia-pro/media/201610061313240024-03-93_1.optimized.e94bc8de.jpg;Point;429190.0037;4579876.209;42.91900037;45.79876209
Bellaombra de la  Plaça Francesc Maci¤;" Plaça de Francesc Maci¤,9999";Sant Gervasi - Galvany;Sarrià-Sant Gervasi;08036;https://www.barcelona.cat/ca/que-pots-fer-a-bcn/parcs-i-jardins/arbres-interes-local/bellaombra-de-la-placa-francesc-macia_99400455037.html;https://estatics-nasia.dtibcn.cat/nasia-pro/media/201610191102510061-02-94_1.optimized.7b027c44.jpg;Point;428467.2371;4582696.117;42.846723710000006;45.82696117
Bellaombres de la  Plaça Prim;" Plaça de Prim,2";el Poblenou;Sant Martí;08005;https://www.barcelona.cat/ca/que-pots-fer-a-bcn/parcs-i-jardins/arbres-interes-local/bellaombres-de-la-placa-prim_99400455038.html;https://estatics-nasia.dtibcn.cat/nasia-pro/media/201610111256450091-10-94_1.optimized.53e180bc.jpg;Point;433716.0902;4583406.523;43.37160902;45.83406523
Alzina de la Diagonal;Av Diagonal,361;la Dreta de l'Eixample;Eixample;08037;https://www.barcelona.cat/ca/que-pots-fer-a-bcn/parcs-i-jardins/arbres-interes-local/alzina-de-la-diagonal_99400455046.html;https://estatics-nasia.dtibcn.cat/nasia-pro/media/201610141035470006-02-93_1.optimized.6ae5ae19.jpg;Point;430068.9725;4583218.636;43.006897249999994;45.83218636
Araucària de la casa de la Misericòrdia;Carrer d'Elisabets,6;el Raval;Ciutat Vella;08001;https://www.barcelona.cat/ca/que-pots-fer-a-bcn/parcs-i-jardins/arbres-interes-local/araucaria-de-la-casa-de-la-misericordia_99400637926.html;https://estatics-nasia.dtibcn.cat/nasia-pro/media/201910071033400166-01-16_1.optimized.9f4cc419.jpg;Point;430499.8074;4581667.661;43.04998074;45.81667661
Llentiscle del Parc de la Creueta del Coll;Passeig de la Mare de Déu del Coll,77;el Coll;Gràcia;08023;https://www.barcelona.cat/ca/que-pots-fer-a-bcn/parcs-i-jardins/arbres-interes-local/llentiscle-del-parc-de-la-creueta-del-coll_99400638023.html;https://estatics-nasia.dtibcn.cat/nasia-pro/media/201910041215360182-06-18_1.optimized.df0f4056.jpg;Point;428822.1101;4585594.234;42.88221101;45.85594234
Alzina de Can Vidalet;Carrer de l'Encarnació,13;la Vila de Gràcia;Gràcia;08012;https://www.barcelona.cat/ca/que-pots-fer-a-bcn/parcs-i-jardins/arbres-interes-local/alzina-de-can-vidalet_99400638027.html;https://estatics-nasia.dtibcn.cat/nasia-pro/media/201910021421160185-06-18_3.optimized.6b71392d.jpg;Point;429676.0181;4584125.56;42.96760181;45.8412556
Roure martinenc del parc de la Tamarita;Jardins de La Tamarita,12;Sant Gervasi - la Bonanova;Sarrià-Sant Gervasi;08022;https://www.barcelona.cat/ca/que-pots-fer-a-bcn/parcs-i-jardins/arbres-interes-local/roure-martinenc-del-parc-de-la-tamarita_99400454957.html;https://estatics-nasia.dtibcn.cat/nasia-pro/media/201610031218140133-05-98_1.optimized.f5be4446.jpg;Point;427718.8;4584710.19;42.771879999999996;45.847101900000006
Roures martinencs de l'Avinguda Diagonal;Av Diagonal,698;Pedralbes;Les Corts;08034;https://www.barcelona.cat/ca/que-pots-fer-a-bcn/parcs-i-jardins/arbres-interes-local/roures-martinencs-de-l-avinguda-diagonal_99400454960.html;https://estatics-nasia.dtibcn.cat/nasia-pro/media/201610061319160112-04-96_1.optimized.7a6afb20.jpg;Point;425632.6079;4581825.65;42.56326079;45.818256500000004
Àlber del carrer Xavier Nogués;Carrer de Xavier Nogués,43;el Besòs i el Maresme;Sant Martí;08019;https://www.barcelona.cat/ca/que-pots-fer-a-bcn/parcs-i-jardins/arbres-interes-local/alber-del-carrer-xavier-nogues_99400454973.html;https://estatics-nasia.dtibcn.cat/nasia-pro/media/201610111302310135-10-98-7-5.optimized.7ab1d55e.jpg;Point;434444.5209;4585123.43;43.44445209;45.851234299999994
Magnòlies dels jardins del claustre de la Catedral;Carrer del Bisbe,10;el Barri Gòtic;Ciutat Vella;08002;https://www.barcelona.cat/ca/que-pots-fer-a-bcn/parcs-i-jardins/arbres-interes-local/magnolies-dels-jardins-del-claustre-de-la-catedral_99400455059.html;https://estatics-nasia.dtibcn.cat/nasia-pro/media/201610200936400050-01-93_2.optimized.8d974d17.jpg;Point;431108.2397;4581697.356;43.11082397;45.816973559999994
Taronger de Louisiana del carrer Maria Montessori;Carrer de Maria Montessori,1;el Poble-sec;Sants-Montjuíc;08038;https://www.barcelona.cat/ca/que-pots-fer-a-bcn/parcs-i-jardins/arbres-interes-local/taronger-de-louisiana-del-carrer-maria-montessori_99400455061.html;https://estatics-nasia.dtibcn.cat/nasia-pro/media/201610061428300136-03-98_1.optimized.7b450207.jpg;Point;429369.4179;4580254.177;42.93694179;45.802541770000005
Molles cendrosos del carrer Sant Pere Claver;Carrer de Sant Pere Claver,13;Sarrià;Sarrià-Sant Gervasi;08017;https://www.barcelona.cat/ca/que-pots-fer-a-bcn/parcs-i-jardins/arbres-interes-local/molles-cendrosos-del-carrer-sant-pere-claver_99400455062.html;https://estatics-nasia.dtibcn.cat/nasia-pro/media/201610061055400099-05-94_1.optimized.07eac391.jpg;Point;426201.8848;4584253.281;42.62018848;45.84253281
Lledoner de la  Plaça Josep Andreu Abelló;" Plaça de Josep Andreu i Abelló,4";la Trinitat Vella;Sant Andreu;08033;https://www.barcelona.cat/ca/que-pots-fer-a-bcn/parcs-i-jardins/arbres-interes-local/lledoner-de-la-placa-josep-andreu-abello_99400455064.html;https://estatics-nasia.dtibcn.cat/nasia-pro/media/201610110913450164-09-13_1.optimized.d5d12e52.jpg;Point;432351.982;4588823.173;43.2351982;45.88823173
Ginjoler del carrer Arimon;Carrer d'Arimon,14;Sant Gervasi - la Bonanova;Sarrià-Sant Gervasi;08022;https://www.barcelona.cat/ca/que-pots-fer-a-bcn/parcs-i-jardins/arbres-interes-local/ginjoler-del-carrer-arimon_99400455076.html;https://estatics-nasia.dtibcn.cat/nasia-pro/media/201610251121490148-05-07_2.optimized.cb0eca1b.jpg;Point;427887.3015;4584046.215;42.78873015;45.84046215
Garrofer del viaducte del Park Güell;Carretera del Carmel,23;la Salut;Gràcia;08024;https://www.barcelona.cat/ca/que-pots-fer-a-bcn/parcs-i-jardins/arbres-interes-local/garrofer-del-viaducte-del-park-guell_99400455077.html;https://estatics-nasia.dtibcn.cat/nasia-pro/media/201610031204000036-06-93_4.optimized.7a202622.jpg;Point;429271.4498;4585183.717;42.92714498;45.85183717
Xicranda de la Via Augusta;Via Augusta,202;Sant Gervasi - Galvany;Sarrià-Sant Gervasi;08021;https://www.barcelona.cat/ca/que-pots-fer-a-bcn/parcs-i-jardins/arbres-interes-local/xicranda-de-la-via-augusta_99400680098.html;https://estatics-nasia.dtibcn.cat/nasia-pro/media/Xicranda_de_la_Via_Augusta.optimized.375c6813.jpg;Point;428110.3933;4583305.399;42.81103933;45.83305399
Teix de l'Escola Pia de Sarrià;Carrer de la Immaculada,25;Sant Gervasi - la Bonanova;Sarrià-Sant Gervasi;08017;https://www.barcelona.cat/ca/que-pots-fer-a-bcn/parcs-i-jardins/arbres-interes-local/teix-de-l-escola-pia-de-sarria_99400680100.html;https://estatics-nasia.dtibcn.cat/nasia-pro/media/Teix_de_lEscola_Pia_de_Sarria.optimized.e5ff38eb.jpg;Point;426840.539;4584300.301;42.6840539;45.84300301
Lledoner del barri d'Horta;Carrer de Lloret de Mar,47;Horta;Horta-Guinardó;08031;https://guia.barcelona.cat/es/detall/lledoner-del-barri-d-horta_99400680092.html;;Point;429501.2044;4587364.202;42.95012044;45.87364202
Magn·lia dels jardins de la Maternitat;Carrer d'Elisabeth Eidenbenz,23;la Maternitat i Sant Ramon;Les Corts;08028;https://www.barcelona.cat/ca/que-pots-fer-a-bcn/parcs-i-jardins/arbres-interes-local/magnolia-dels-jardins-de-la-maternitat_99400680094.html;https://estatics-nasia.dtibcn.cat/nasia-pro/media/Magnolia_dels_jardins_de_la_Maternitat.optimized.36b60d79.jpg;Point;426857.4496;4581536.652;42.68574496;45.81536652
Washingtònies de la  Plaça Francesc Macià;Pl Francesc Macià,6;Sant Gervasi - Galvany;Sarrià-Sant Gervasi;08021;https://www.barcelona.cat/ca/que-pots-fer-a-bcn/parcs-i-jardins/arbres-interes-local/washingtonies-de-la-placa-francesc-macia_99400454982.html;https://estatics-nasia.dtibcn.cat/nasia-pro/media/201610251013340026-04-93_1.optimized.7f3ba145.jpg;Point;428415.4146;4582723.054;42.84154146;45.827230539999995
Olivera del Park Güell;Carretera del Carmel,19;la Salut;Gràcia;08024;https://www.barcelona.cat/ca/que-pots-fer-a-bcn/parcs-i-jardins/arbres-interes-local/olivera-del-park-guell_99400454989.html;https://estatics-nasia.dtibcn.cat/nasia-pro/media/201610031301380117-06-96_1.optimized.ebb2e361.jpg;Point;429373.5418;4585162.18;42.93735418;45.8516218
Xiprer quadrivalve dels jardins del Palau de Pedralbes;Avinguda Diagonal,686;Pedralbes;Les Corts;08034;https://www.barcelona.cat/ca/que-pots-fer-a-bcn/parcs-i-jardins/arbres-interes-local/xiprer-quadrivalve-dels-jardins-del-palau-de-pedralbes_99400454990.html;https://estatics-nasia.dtibcn.cat/nasia-pro/media/201610270856000047-04-93_1.optimized.43ee680b.jpg;Point;426282.1105;4582090.593;42.628211050000004;45.82090593
Pi pinyer del carrer Natzaret;Carrer de Natzaret,16;Sant Genís dels Agudells;Horta-Guinardó;08035;https://www.barcelona.cat/ca/que-pots-fer-a-bcn/parcs-i-jardins/arbres-interes-local/pi-pinyer-del-carrer-natzaret_99400454996.html;https://estatics-nasia.dtibcn.cat/nasia-pro/media/201610121018280121-07-96_1.optimized.203213d4.jpg;Point;428065.5033;4586071.073;42.80655033;45.86071073
Acàcia de les tres punxes de l'estació de Sant Andreu Comtal;" Plaça de l'Estació,11";Sant Andreu;Sant Andreu;08030;https://www.barcelona.cat/ca/que-pots-fer-a-bcn/parcs-i-jardins/arbres-interes-local/acacia-de-les-tres-punxes-de-l-estacio-de-sant-andreu-comtal_99400455084.html;https://estatics-nasia.dtibcn.cat/nasia-pro/media/201610061456440037-09-93_1.optimized.5bb318cb.jpg;Point;432579.6814;4587471.106;43.25796814;45.874711059999996
Pebrer bord del carrer Maignon;Carrer de Maignon,27;la Salut;Gràcia;08024;https://www.barcelona.cat/ca/que-pots-fer-a-bcn/parcs-i-jardins/arbres-interes-local/pebrer-bord-del-carrer-maignon_99400680097.html;https://estatics-nasia.dtibcn.cat/nasia-pro/media/Pebrer_bord_del_carrer_Maignon.optimized.e9b2ee61.jpg;Point;429199.2509;4584644.673;42.91992509;45.846446730000004
Fot¡nies del parc de les Aigües del Guinardó;Ronda del Guinardó,33;el Baix Guinardó;Horta-Guinardó;08024;https://www.barcelona.cat/ca/que-pots-fer-a-bcn/parcs-i-jardins/arbres-interes-local/fotinies-del-parc-de-les-aigues-del-guinardo_99400455010.html;https://estatics-nasia.dtibcn.cat/nasia-pro/media/201610070957480027-07-93_1.optimized.e00c0ecf.jpg;Point;430264.6862;4584963.125;43.02646862;45.84963125
Figuera de la Facultat de Dret;Avinguda Diagonal,684;Pedralbes;Les Corts;08034;https://www.barcelona.cat/ca/que-pots-fer-a-bcn/parcs-i-jardins/arbres-interes-local/figuera-de-la-facultat-de-dret_99400455011.html;https://estatics-nasia.dtibcn.cat/nasia-pro/media/201610251018300128-04-97_1.optimized.a63108ce.jpg;Point;426488.2555;4582134.577;42.648825550000005;45.82134576999999
Ficus del pati de l'Escola Saint Nicholas;Carrer de Provença,283;la Dreta de l'Eixample;Eixample;08037;https://www.barcelona.cat/ca/que-pots-fer-a-bcn/parcs-i-jardins/arbres-interes-local/ficus-del-pati-de-l-escola-saint-nicholas_99400455013.html;https://estatics-nasia.dtibcn.cat/nasia-pro/media/201610200846260062-02-94_1.optimized.17dcc66f.jpg;Point;430050.4437;4583135.321;43.00504437;45.83135321
Datiler del carrer Olesa;Carrer d'Olesa,71;la Sagrera;Sant Andreu;08027;https://www.barcelona.cat/ca/que-pots-fer-a-bcn/parcs-i-jardins/arbres-interes-local/datiler-del-carrer-olesa_99400455022.html;https://estatics-nasia.dtibcn.cat/nasia-pro/media/201610110929210038-09-93_1.optimized.24d92553.jpg;Point;431984.9232;4586228.362;43.19849232;45.86228362
Cedre del Parc del Laberint;Carrer dels Germans Desvalls,42;Horta;Horta-Guinardó;08035;https://www.barcelona.cat/ca/que-pots-fer-a-bcn/parcs-i-jardins/arbres-interes-local/cedre-del-parc-del-laberint_99400455028.html;https://estatics-nasia.dtibcn.cat/nasia-pro/media/201610121136540143-07-03_1.optimized.9f800703.jpg;Point;428760.1169;4587907.761;42.876011690000006;45.879077609999996
Castanyer bord de la  Plaça Carles Buïgas;" Plaça de Carles Buïgas,8";el Poble-sec;Sants-Montjuíc;08038;https://www.barcelona.cat/ca/que-pots-fer-a-bcn/parcs-i-jardins/arbres-interes-local/castanyer-bord-de-la-placa-carles-buigas_99400455030.html;https://estatics-nasia.dtibcn.cat/nasia-pro/media/201610270951280131-03-97_2.optimized.72e281ad.jpg;Point;429226.8292;4580358.38;42.92268292;45.8035838
Washingt·nia de Can Verdaguer;Carrer de l'Estudiant,48;Porta;Nou Barris;08016;https://www.barcelona.cat/ca/que-pots-fer-a-bcn/parcs-i-jardins/arbres-interes-local/washingtonia-de-can-verdaguer_99400454983.html;https://estatics-nasia.dtibcn.cat/nasia-pro/media/201610121238200085-08-94_1.optimized.d80e01a0.jpg;Point;431409.2826;4587309.779;43.140928259999995;45.87309779
Pi blanc dels jardins de Torre Girona;Carrer de Jordi Girona,29;Pedralbes;Les Corts;08034;https://www.barcelona.cat/ca/que-pots-fer-a-bcn/parcs-i-jardins/arbres-interes-local/pi-blanc-dels-jardins-de-torre-girona_99400455002.html;https://estatics-nasia.dtibcn.cat/nasia-pro/media/201610251008530064-04-94_1.optimized.ef193ecc.jpg;Point;426037.0788;4582292.279;42.60370788;45.82292279
Pi de Sant Gen¡s dels Agudells;Carrer de Natzaret,97;Sant Gen¡s dels Agudells;Horta-Guinardó;08035;https://www.barcelona.cat/ca/que-pots-fer-a-bcn/parcs-i-jardins/arbres-interes-local/pi-de-sant-genis-dels-agudells_99400455004.html;https://estatics-nasia.dtibcn.cat/nasia-pro/media/201610121149200125-07-97_1.optimized.784d7104.jpg;Point;427796.5428;4586595.816;42.77965428;45.86595816
Tilúler argentat del Parc del Laberint;Carrer dels Germans Desvalls,40;Horta;Horta-Guinardó;08035;https://www.barcelona.cat/ca/que-pots-fer-a-bcn/parcs-i-jardins/arbres-interes-local/til-ler-argentat-del-parc-del-laberint_99400454941.html;https://estatics-nasia.dtibcn.cat/nasia-pro/media/201610121011570144-07-03_1.optimized.eedcc4fd.jpg;Point;428770.4466;4587895.345;42.87704466;45.87895345
Surera del Parc de Monterols;Carrer de Ferran Valls i Taberner,5;Sant Gervasi - Galvany;Sarrià-Sant Gervasi;08006;https://www.barcelona.cat/ca/que-pots-fer-a-bcn/parcs-i-jardins/arbres-interes-local/surera-del-parc-de-monterols_99400454949.html;https://estatics-nasia.dtibcn.cat/nasia-pro/media/201610061120320044-05-93_2.optimized.a17664ec.jpg;Point;428217.6523;4583808.661;42.821765230000004;45.838086610000005
Sequoia del parc del Laberint d'Horta;Carrer dels Germans Desvalls,48;Horta;Horta-Guinardó;08035;https://www.barcelona.cat/ca/que-pots-fer-a-bcn/parcs-i-jardins/arbres-interes-local/sequoia-del-parc-del-laberint-d-horta_99400454951.html;https://estatics-nasia.dtibcn.cat/nasia-pro/media/201610121210440016-07-93_1.optimized.fb6980c7.jpg;Point;428649.0526;4587936.63;42.86490526;45.8793663
Eucaliptus blanc del passeig de la Bonanova;Passeig de la Bonanova,22;Sant Gervasi - la Bonanova;Sarrià-Sant Gervasi;08022;https://www.barcelona.cat/ca/que-pots-fer-a-bcn/parcs-i-jardins/arbres-interes-local/eucaliptus-blanc-del-passeig-de-la-bonanova_99400637914.html;https://estatics-nasia.dtibcn.cat/nasia-pro/media/201910071040490165-05-14_1.optimized.8b2ee90b.jpg;Point;427323.6966;4584120.525;42.73236966;45.84120525
Palmera blava de la  Plaça Pius XII;" Plaça de Pius XII,6";Pedralbes;Les Corts;08034;https://www.barcelona.cat/ca/que-pots-fer-a-bcn/parcs-i-jardins/arbres-interes-local/palmera-blava-de-la-placa-pius-xii_99400455034.html;https://estatics-nasia.dtibcn.cat/nasia-pro/media/201610061305300067-04-94_1.optimized.fe934517.jpg;Point;426610.6943;4582136.888;42.66106943;45.82136888
Arbre ampolla dels jardins de Torre Girona;Carrer de Jordi Girona,31;Pedralbes;Les Corts;08034;https://www.barcelona.cat/ca/que-pots-fer-a-bcn/parcs-i-jardins/arbres-interes-local/arbre-ampolla-dels-jardins-de-torre-girona_99400455035.html;https://estatics-nasia.dtibcn.cat/nasia-pro/media/201610161511340065-04-94_11.optimized.7587abc5.jpg;Point;426095.5083;4582306.894;42.609550829999996;45.823068940000006
Bellaombres dels jardins de Miramar;Carretera de Miramar,33;el Poble-sec;Sants-Montjuíc;08038;https://www.barcelona.cat/ca/que-pots-fer-a-bcn/parcs-i-jardins/arbres-interes-local/bellaombres-dels-jardins-de-miramar_99400455036.html;https://estatics-nasia.dtibcn.cat/nasia-pro/media/201610061116320030-03-93_1.optimized.99ac4498.jpg;Point;430754.6488;4580241.484;43.075464880000006;45.802414840000004
Arboç del parc del Laberint d'Horta;Carrer dels Germans Desvalls,48;Horta;Horta-Guinardó;08035;https://www.barcelona.cat/ca/que-pots-fer-a-bcn/parcs-i-jardins/arbres-interes-local/arboc-del-parc-del-laberint-d-horta_99400455043.html;https://estatics-nasia.dtibcn.cat/nasia-pro/media/201610120942000017-07-93_1.optimized.0fb6c5f9.jpg;Point;428687.3736;4587972.691;42.86873736;45.879726909999995
Alzina del carrer Baladre;Carrer del Baladre,8;Vallvidrera, el Tibidabo i les Planes;Sarrià-Sant Gervasi;08017;https://www.barcelona.cat/ca/que-pots-fer-a-bcn/parcs-i-jardins/arbres-interes-local/alzina-del-carrer-baladre_99400455044.html;https://estatics-nasia.dtibcn.cat/nasia-pro/media/201610061028220137-05-98-10-11a.optimized.4ae78223.jpg;Point;424216.8116;4586529.5;42.42168116;45.865295
Alzines de la  Plaça Catalunya;" Plaça de Catalunya,14";la Dreta de l'Eixample;Eixample;08002;https://www.barcelona.cat/ca/que-pots-fer-a-bcn/parcs-i-jardins/arbres-interes-local/alzines-de-la-placa-catalunya_99400455045.html;https://estatics-nasia.dtibcn.cat/nasia-pro/media/201610201302260095-01-94_1.optimized.a3c0cdaa.jpg;Point;430650.0271;4582075.893;43.06500271;45.820758930000004
Datiler del carrer Lancaster;Carrer de Lancaster,8;el Raval;Ciutat Vella;08001;https://www.barcelona.cat/ca/que-pots-fer-a-bcn/parcs-i-jardins/arbres-interes-local/datiler-del-carrer-lancaster_99400455051.html;https://estatics-nasia.dtibcn.cat/nasia-pro/media/201610250952570101-01-96-19-1-10.optimized.92dd1986.jpg;Point;430954.7878;4581099.553;43.09547878;45.81099553
Palmeres canàries de l'Hospital de Sant Pau;Carrer de Sant Antoni Maria Claret,167;el Guinardó;Horta-Guinardó;08041;https://www.barcelona.cat/ca/que-pots-fer-a-bcn/parcs-i-jardins/arbres-interes-local/palmeres-canaries-de-l-hospital-de-sant-pau_99400455053.html;https://estatics-nasia.dtibcn.cat/nasia-pro/media/201610111309230161-07-13_2.optimized.7ab1c611.jpg;Point;430994.9692;4584777.255;43.09949692;45.84777255
Palmera can¤ria de la Rambla Guipúscoa;Rambla de Guipúscoa,29;Sant Martí de Provençals;Sant Martí;08020;https://www.barcelona.cat/ca/que-pots-fer-a-bcn/parcs-i-jardins/arbres-interes-local/palmera-canaria-de-la-rambla-guipuscoa_99400455054.html;https://estatics-nasia.dtibcn.cat/nasia-pro/media/201610111250520092-10-94_1.optimized.96a27d93.jpg;Point;432708.5563;4585132.073;43.27085563;45.85132073
Noguera amb ales del Jardí Botànic Històric;Avinguda dels Montanyans,30;el Poble-sec;Sants-Montjuíc;08038;https://www.barcelona.cat/ca/que-pots-fer-a-bcn/parcs-i-jardins/arbres-interes-local/noguera-amb-ales-del-jardi-botanic-historic_99400637930.html;https://estatics-nasia.dtibcn.cat/nasia-pro/media/201910041347050169-03-15_1.optimized.47c03a34.jpg;Point;429097.3265;4579834.782;42.90973265;45.79834782
Plàtans dels jardins del Claustre;Passeig de Santa Madrona,30;el Poble-sec;Sants-Montjuíc;08038;https://www.barcelona.cat/ca/que-pots-fer-a-bcn/parcs-i-jardins/arbres-interes-local/platans-dels-jardins-del-claustre_99400638000.html;https://estatics-nasia.dtibcn.cat/nasia-pro/media/201910041312280176-03-17_2.optimized.beb26d52.jpg;Point;429635.865;4580051.41;42.9635865;45.8005141
Arbre serp dels interiors de Via Favència;Via Favència,179;les Roquetes;Nou Barris;08042;https://www.barcelona.cat/ca/que-pots-fer-a-bcn/parcs-i-jardins/arbres-interes-local/arbre-serp-dels-interiors-de-via-favencia_99400638006.html;https://estatics-nasia.dtibcn.cat/nasia-pro/media/201910041236220179-08-17_1.optimized.501ac73f.jpg;Point;431059.4758;4588508.982;43.10594758;45.88508982
Lledoner de la Fundació Mu¤oz Ramonet;Carrer de Muntaner,282;Sant Gervasi - Galvany;Sarrià-Sant Gervasi;08021;https://www.barcelona.cat/ca/que-pots-fer-a-bcn/parcs-i-jardins/arbres-interes-local/lledoner-de-la-fundacio-munoz-ramonet_99400638013.html;https://estatics-nasia.dtibcn.cat/nasia-pro/media/201910041225350181-05-17_1.optimized.02cab0cd.jpg;Point;428683.185;4583099.926;42.8683185;45.83099926
Magnòlia del Colúlegi La Salle Bonanova;" Plaça de la Bonanova,13";Sant Gervasi - la Bonanova;Sarrià-Sant Gervasi;08022;https://www.barcelona.cat/ca/que-pots-fer-a-bcn/parcs-i-jardins/arbres-interes-local/magnolia-del-col-legi-la-salle-bonanova_99400455058.html;https://estatics-nasia.dtibcn.cat/nasia-pro/media/201610061049480116-05-96_1.optimized.b62e2999.jpg;Point;427376.0054;4584268.056;42.73760054;45.84268056
Livistona australiana de l'Ateneu Barcelonès;" Plaça de la Vila de Madrid,11";el Barri Gòtic;Ciutat Vella;08002;https://www.barcelona.cat/ca/que-pots-fer-a-bcn/parcs-i-jardins/arbres-interes-local/livistona-australiana-de-l-ateneu-barcelones_99400455068.html;https://estatics-nasia.dtibcn.cat/nasia-pro/media/201610201035090053-01-94_1.optimized.90196b32.jpg;Point;430741.6802;4581762.027;43.07416802;45.81762027
Còculs del Jardí de la Casa Ignacio de Puig;Carrer d'en Quintana,4;el Barri Gòtic;Ciutat Vella;08002;https://www.barcelona.cat/ca/que-pots-fer-a-bcn/parcs-i-jardins/arbres-interes-local/coculs-del-jardi-de-la-casa-ignacio-de-puig_99400638024.html;https://estatics-nasia.dtibcn.cat/nasia-pro/media/Coculs_del_jardi_de_la_Casa_Ignacio_de_Puig.optimized.8cacf795.jpg;Point;430953.4796;4581383.07;43.095347960000005;45.813830700000004
Xiprer com£ del carrer Betlem;Carrer de Betlem,55;la Vila de Gràcia;Gràcia;08012;https://guia.barcelona.cat/es/detall/xiprer-comu-del-carrer-betlem_99400680099.html;;Point;429282.7776;4584136.003;42.92827776;45.84136003
Ficus de Mysore del Santuari de Sant Josep de la Muntaya;Avinguda del Santuari de Sant Josep de la Muntanya,25;la Salut;Gràcia;08024;https://www.barcelona.cat/ca/que-pots-fer-a-bcn/parcs-i-jardins/arbres-interes-local/ficus-de-mysore-del-santuari-de-sant-josep-de-la-muntaya_99400680086.html;https://estatics-nasia.dtibcn.cat/nasia-pro/media/Ficus_de_Mysore_del_Santuari_de_Sant_Josep_de_la_Muntaya.optimized.64a504ff.jpg;Point;429236.8211;4584662.82;42.92368211;45.846628200000005
Garrofer de la  Plaça del Doctor Castelló;Avinguda de Sarrià,88;les Tres Torres;Sarrià-Sant Gervasi;08017;https://www.barcelona.cat/ca/que-pots-fer-a-bcn/parcs-i-jardins/arbres-interes-local/garrofer-de-la-placa-del-doctor-castello_99400680089.html;https://estatics-nasia.dtibcn.cat/nasia-pro/media/Garrofer_de_la_placa_del_Doctor_Castello.optimized.216e60a5.jpg;Point;427727.9491;4582620.112;42.77279491;45.82620112
Pi pinyer del carrer August Font;Carrer d'August Font,2;Vallcarca i els Penitents;Gràcia;08035;https://bcnsostenible.cat/web/punt/pi-pinyer-del-carrer-august-font;https://cache.bcnsostenible.cat/assets/605aef81940cd75a7d8b4567/w900/0.png;Point;427651.8394;4585680.82;42.76518394;45.8568082
Tarongers de la Casa de la Misericòrdia;Jardí dels Tarongers,17;el Raval;Ciutat Vella;08001;https://www.barcelona.cat/ca/que-pots-fer-a-bcn/parcs-i-jardins/arbres-interes-local/tarongers-de-la-casa-de-la-misericordia_99400637948.html;https://estatics-nasia.dtibcn.cat/nasia-pro/media/201910041316350175-01-16_1.optimized.4c4dc5c2.jpg;Point;430447.2532;4581694.568;43.04472532;45.816945679999996
Pit·spor de la Ciutadella;Parc de la Ciutadella,22;Sant Pere, Santa Caterina i la Ribera;Ciutat Vella;08018;https://www.barcelona.cat/ca/que-pots-fer-a-bcn/parcs-i-jardins/arbres-interes-local/pitospor-de-la-ciutadella_99400638005.html;https://estatics-nasia.dtibcn.cat/nasia-pro/media/201910041241280178-01-17_1.optimized.bbf014c1.jpg;Point;431964.0044;4582108.063;43.19640044;45.82108063
Om siberi¤ del carrer Llull;Carrer de Llull,353;Diagonal Mar i el Front Mar¡tim del Poblenou;Sant Martí;08019;https://www.barcelona.cat/ca/que-pots-fer-a-bcn/parcs-i-jardins/arbres-interes-local/om-siberia-del-carrer-llull_99400637928.html;https://estatics-nasia.dtibcn.cat/nasia-pro/media/201910041351570168-10-15_1.optimized.39018dfb.jpg;Point;434118.9949;4584411.958;43.411899489999996;45.84411958
Morera del carrer Alcoi;Carrer d'Alcoi,10;Sant Gervasi - la Bonanova;Sarrià-Sant Gervasi;08022;https://www.barcelona.cat/ca/que-pots-fer-a-bcn/parcs-i-jardins/arbres-interes-local/morera-del-carrer-alcoi_99400637946.html;https://estatics-nasia.dtibcn.cat/nasia-pro/media/201910041325570173-05-16_1.optimized.47d6e8fe.jpg;Point;427387.1007;4584468.172;42.73871007;45.844681720000004
Aladern de fulla ampla de la Torre Castanyer;Carrer del Lluçanès,26;Sant Gervasi - la Bonanova;Sarrià-Sant Gervasi;08022;https://www.barcelona.cat/ca/que-pots-fer-a-bcn/parcs-i-jardins/arbres-interes-local/aladern-de-fulla-ampla-de-la-torre-castanyer_99400637947.html;https://estatics-nasia.dtibcn.cat/nasia-pro/media/201910041320570174-05-16_1.optimized.f7c2c6e4.jpg;Point;427490.3705;4584393.21;42.749037050000005;45.843932099999996
Sòfora de la  Plaça de Can Portabella;" Plaça de Can Portabella,1";Sant Andreu;Sant Andreu;08030;https://www.barcelona.cat/ca/que-pots-fer-a-bcn/parcs-i-jardins/arbres-interes-local/sofora-de-la-placa-de-can-portabella_99400638008.html;https://estatics-nasia.dtibcn.cat/nasia-pro/media/201910041230310180-09-17_1.optimized.1360200d.jpg;Point;432659.0703;4586673.6;43.26590703;45.866735999999996
Còculs dels jardins del Palau Robert;Carrer de Còrsega,302;la Dreta de l'Eixample;Eixample;08008;https://www.barcelona.cat/ca/que-pots-fer-a-bcn/parcs-i-jardins/arbres-interes-local/coculs-dels-jardins-del-palau-robert_99400638025.html;https://estatics-nasia.dtibcn.cat/nasia-pro/media/201910021428170184-02-18_1.optimized.6d4d3af9.jpg;Point;429703.8247;4583019.261;42.97038247;45.83019261
Taronger de Louisiana de la Ciutadella;Parc de la Ciutadella,1210;Sant Pere, Santa Caterina i la Ribera;Ciutat Vella;08003;https://www.barcelona.cat/ca/que-pots-fer-a-bcn/parcs-i-jardins/arbres-interes-local/taronger-de-louisiana-de-la-ciutadella_99400679805.html;https://estatics-nasia.dtibcn.cat/nasia-pro/media/Taronger_de_Louisiana_de_la_Ciutadella.optimized.fe1ef9af.jpg;Point;432080.3036;4582211.781;43.208030359999995;45.82211781
Roure martinenc del parc Zoològic;Parc de la Ciutadella,1210;Sant Pere, Santa Caterina i la Ribera;Ciutat Vella;08003;https://www.barcelona.cat/ca/que-pots-fer-a-bcn/parcs-i-jardins/arbres-interes-local/roure-martinenc-del-parc-zoologic_99400679813.html;https://estatics-nasia.dtibcn.cat/nasia-pro/media/Roure_martinenc_del_parc_Zoologic.optimized.69f3b11d.jpg;Point;432040.5067;4581839.576;43.20405067;45.81839576
Fals Plàtan del Jardí Botànic Històric;Avinguda dels Montanyans,30;el Poble-sec;Sants-Montjuíc;08038;https://www.barcelona.cat/ca/que-pots-fer-a-bcn/parcs-i-jardins/arbres-interes-local/fals-platan-del-jardi-botanic-historic_99400637939.html;https://estatics-nasia.dtibcn.cat/nasia-pro/media/201910041342020170-03-15_1.optimized.a4f7121b.jpg;Point;429084.1218;4579820.073;42.90841218;45.79820073
Cedre de la Universitat Abat Oliba;Carrer de Bellesguard,24;Sant Gervasi - la Bonanova;Sarrià-Sant Gervasi;08022;https://www.barcelona.cat/ca/que-pots-fer-a-bcn/parcs-i-jardins/arbres-interes-local/cedre-de-la-universitat-abat-oliba_99400680057.html;https://estatics-nasia.dtibcn.cat/nasia-pro/media/Cedre_de_la_Universitat_Abat_Oliba.optimized.599b5996.jpg;Point;426971.9957;4584635.754;42.69719957;45.84635754